[{"OBJECT_NAME":"NESS","OBJECT_ID":"2023-155E","EPOCH":"2026-03-09T18:20:54.923712","MEAN_MOTION":15.26794015,"ECCENTRICITY":0.00068914,"INCLINATION":97.5941,"RA_OF_ASC_NODE":152.6141,"ARG_OF_PERICENTER":179.8776,"MEAN_ANOMALY":180.2465,"EPHEMERIS_TYPE":0,"CLASSIFICATION_TYPE":"U","NORAD_CAT_ID":58020,"ELEMENT_SET_NO":999,"REV_AT_EPOCH":13330,"BSTAR":0.00074047066,"MEAN_MOTION_DOT":0.00019469,"MEAN_MOTION_DDOT":0},{"OBJECT_NAME":"STARLINK-36410","OBJECT_ID":"2026-003D","EPOCH":"2026-03-09T10:56:13.321536","MEAN_MOTION":15.27594916,"ECCENTRICITY":9.594e-5,"INCLINATION":42.9974,"RA_OF_ASC_NODE":228.7734,"ARG_OF_PERICENTER":278.7996,"MEAN_ANOMALY":81.2747,"EPHEMERIS_TYPE":0,"CLASSIFICATION_TYPE":"U","NORAD_CAT_ID":67337,"ELEMENT_SET_NO":999,"REV_AT_EPOCH":878,"BSTAR":0.0013428845,"MEAN_MOTION_DOT":0.00036893,"MEAN_MOTION_DDOT":0}]
